{"type": "FeatureCollection", "features": [ {"type": "Feature", "properties": {"norad_id": 31535, "name": "FENGYUN 1C DEB", "group": "fengyun-1c-debris", "lat": 78.99722853896996, "lon": 75.42224487380709, "alt_km": 732.8415379747021, "timestamp": "2025-12-25T22:42:17.294452+00:00", "meta": {"OBJECT_NAME": "FENGYUN 1C DEB", "OBJECT_ID": "1999-025BYA", "EPOCH": "2025-12-24T07:35:01.239648", "MEAN_MOTION": 14.28365106, "ECCENTRICITY": 0.00883022, "INCLINATION": 98.0343, "RA_OF_ASC_NODE": 207.3324, "ARG_OF_PERICENTER": 128.5209, "MEAN_ANOMALY": 232.3933, "EPHEMERIS_TYPE": 0, "CLASSIFICATION_TYPE": "U", "NORAD_CAT_ID": 31535, "ELEMENT_SET_NO": 999, "REV_AT_EPOCH": 72096, "BSTAR": 0.00063622551, "MEAN_MOTION_DOT": 1.62e-05, "MEAN_MOTION_DDOT": 0}, "tle": {"line1": "1 31535U 99025BYA 25358.31598657  .00001620  00000+0  63623-3 0  9990", "line2": "2 31535  98.0343 207.3324 0088302 128.5209 232.3933 14.28365106720960"}}, "geometry": {"type": "Point", "coordinates": [75.42224487380709, 78.99722853896996]}}, {"type": "Feature", "properties": {"norad_id": 31536, "name": "FENGYUN 1C DEB", "group": "fengyun-1c-debris", "lat": 75.24244524717146, "lon": 120.49478653865192, "alt_km": 495.0656853748251, "timestamp": "2025-12-25T22:42:17.294462+00:00", "meta": {"OBJECT_NAME": "FENGYUN 1C DEB", "OBJECT_ID": "1999-025BYB", "EPOCH": "2025-12-25T17:17:52.152864", "MEAN_MOTION": 14.54479614, "ECCENTRICITY": 0.0294631, "INCLINATION": 98.236, "RA_OF_ASC_NODE": 266.9164, "ARG_OF_PERICENTER": 104.6943, "MEAN_ANOMALY": 258.7104, "EPHEMERIS_TYPE": 0, "CLASSIFICATION_TYPE": "U", "NORAD_CAT_ID": 31536, "ELEMENT_SET_NO": 999, "REV_AT_EPOCH": 96446, "BSTAR": 0.00092536, "MEAN_MOTION_DOT": 7.024e-05, "MEAN_MOTION_DDOT": 0}, "tle": {"line1": "1 31536U 99025BYB 25359.72074251  .00007024  00000+0  92536-3 0  9995", "line2": "2 31536  98.2360 266.9164 0294631 104.6943 258.7104 14.54479614964465"}}, "geometry": {"type": "Point", "coordinates": [120.49478653865192, 75.24244524717146]}}, {"type": "Feature", "properties": {"norad_id": 31537, "name": "FENGYUN 1C DEB", "group": "fengyun-1c-debris", "lat": -57.05013946725376, "lon": 168.43382591796882, "alt_km": 587.4477980510374, "timestamp": "2025-12-25T22:42:17.294473+00:00", "meta": {"OBJECT_NAME": "FENGYUN 1C DEB", "OBJECT_ID": "1999-025BYC", "EPOCH": "2025-12-22T15:30:50.364864", "MEAN_MOTION": 14.20468164, "ECCENTRICITY": 0.03487105, "INCLINATION": 99.2934, "RA_OF_ASC_NODE": 150.3269, "ARG_OF_PERICENTER": 296.2481, "MEAN_ANOMALY": 60.3246, "EPHEMERIS_TYPE": 0, "CLASSIFICATION_TYPE": "U", "NORAD_CAT_ID": 31537, "ELEMENT_SET_NO": 999, "REV_AT_EPOCH": 93422, "BSTAR": 0.0026080635, "MEAN_MOTION_DOT": 0.00010318, "MEAN_MOTION_DDOT": 0}, "tle": {"line1": "1 31537U 99025BYC 25356.64641626  .00010318  00000+0  26081-2 0  9991", "line2": "2 31537  99.2934 150.3269 0348710 296.2481  60.3246 14.20468164934225"}}, "geometry": {"type": "Point", "coordinates": [168.43382591796882, -57.05013946725376]}}, {"type": "Feature", "properties": {"norad_id": 31540, "name": "FENGYUN 1C DEB", "group": "fengyun-1c-debris", "lat": -80.49976522035823, "lon": -91.68555117304145, "alt_km": 559.0269265459101, "timestamp": "2025-12-25T22:42:17.294486+00:00", "meta": {"OBJECT_NAME": "FENGYUN 1C DEB", "OBJECT_ID": "1999-025BYF", "EPOCH": "2025-12-23T05:34:33.525408", "MEAN_MOTION": 14.6550063, "ECCENTRICITY": 0.01764738, "INCLINATION": 99.0576, "RA_OF_ASC_NODE": 157.7332, "ARG_OF_PERICENTER": 268.7753, "MEAN_ANOMALY": 89.3225, "EPHEMERIS_TYPE": 0, "CLASSIFICATION_TYPE": "U", "NORAD_CAT_ID": 31540, "ELEMENT_SET_NO": 999, "REV_AT_EPOCH": 98455, "BSTAR": 0.0010217432, "MEAN_MOTION_DOT": 6.907e-05, "MEAN_MOTION_DDOT": 0}, "tle": {"line1": "1 31540U 99025BYF 25357.23233247  .00006907  00000+0  10217-2 0  9990", "line2": "2 31540  99.0576 157.7332 0176473 268.7753  89.3225 14.65500630984555"}}, "geometry": {"type": "Point", "coordinates": [-91.68555117304145, -80.49976522035823]}}, {"type": "Feature", "properties": {"norad_id": 31541, "name": "FENGYUN 1C DEB", "group": "fengyun-1c-debris", "lat": -4.978211469113535, "lon": 144.4357922253801, "alt_km": 717.978799353742, "timestamp": "2025-12-25T22:42:17.294496+00:00", "meta": {"OBJECT_NAME": "FENGYUN 1C DEB", "OBJECT_ID": "1999-025BYG", "EPOCH": "2025-12-25T03:06:41.952672", "MEAN_MOTION": 14.6902553, "ECCENTRICITY": 0.0078402, "INCLINATION": 98.9804, "RA_OF_ASC_NODE": 142.7501, "ARG_OF_PERICENTER": 201.9008, "MEAN_ANOMALY": 157.8837, "EPHEMERIS_TYPE": 0, "CLASSIFICATION_TYPE": "U", "NORAD_CAT_ID": 31541, "ELEMENT_SET_NO": 999, "REV_AT_EPOCH": 98605, "BSTAR": 0.0015835, "MEAN_MOTION_DOT": 9.683e-05, "MEAN_MOTION_DDOT": 0}, "tle": {"line1": "1 31541U 99025BYG 25359.12965223  .00009683  00000+0  15835-2 0  9992", "line2": "2 31541  98.9804 142.7501 0078402 201.9008 157.8837 14.69025530986057"}}, "geometry": {"type": "Point", "coordinates": [144.4357922253801, -4.978211469113535]}}, {"type": "Feature", "properties": {"norad_id": 31542, "name": "FENGYUN 1C DEB", "group": "fengyun-1c-debris", "lat": -19.695281583617923, "lon": -129.3176653817808, "alt_km": 790.9825276815809, "timestamp": "2025-12-25T22:42:17.294506+00:00", "meta": {"OBJECT_NAME": "FENGYUN 1C DEB", "OBJECT_ID": "1999-025BYH", "EPOCH": "2025-12-23T09:00:46.396800", "MEAN_MOTION": 14.22851184, "ECCENTRICITY": 0.00478944, "INCLINATION": 98.7301, "RA_OF_ASC_NODE": 51.288, "ARG_OF_PERICENTER": 176.9296, "MEAN_ANOMALY": 183.2185, "EPHEMERIS_TYPE": 0, "CLASSIFICATION_TYPE": "U", "NORAD_CAT_ID": 31542, "ELEMENT_SET_NO": 999, "REV_AT_EPOCH": 96091, "BSTAR": 0.0012852727, "MEAN_MOTION_DOT": 2.877e-05, "MEAN_MOTION_DDOT": 0}, "tle": {"line1": "1 31542U 99025BYH 25357.37553700  .00002877  00000+0  12853-2 0  9996", "line2": "2 31542  98.7301  51.2880 0047894 176.9296 183.2185 14.22851184960910"}}, "geometry": {"type": "Point", "coordinates": [-129.3176653817808, -19.695281583617923]}}, {"type": "Feature", "properties": {"norad_id": 31544, "name": "FENGYUN 1C DEB", "group": "fengyun-1c-debris", "lat": -66.08391882764892, "lon": -149.45896301562706, "alt_km": 829.3524101879684, "timestamp": "2025-12-25T22:42:17.294517+00:00", "meta": {"OBJECT_NAME": "FENGYUN 1C DEB", "OBJECT_ID": "1999-025BYK", "EPOCH": "2025-12-22T10:20:35.081376", "MEAN_MOTION": 14.14359975, "ECCENTRICITY": 0.00322241, "INCLINATION": 98.8282, "RA_OF_ASC_NODE": 47.5818, "ARG_OF_PERICENTER": 240.9868, "MEAN_ANOMALY": 118.8075, "EPHEMERIS_TYPE": 0, "CLASSIFICATION_TYPE": "U", "NORAD_CAT_ID": 31544, "ELEMENT_SET_NO": 999, "REV_AT_EPOCH": 95894, "BSTAR": 0.0006556952, "MEAN_MOTION_DOT": 1.216e-05, "MEAN_MOTION_DDOT": 0}, "tle": {"line1": "1 31544U 99025BYK 25356.43096159  .00001216  00000+0  65570-3 0  9995", "line2": "2 31544  98.8282  47.5818 0032224 240.9868 118.8075 14.14359975958942"}}, "geometry": {"type": "Point", "coordinates": [-149.45896301562706, -66.08391882764892]}}, {"type": "Feature", "properties": {"norad_id": 31546, "name": "FENGYUN 1C DEB", "group": "fengyun-1c-debris", "lat": -6.005397421882673, "lon": 69.29804898924918, "alt_km": 877.8893021412005, "timestamp": "2025-12-25T22:42:17.294527+00:00", "meta": {"OBJECT_NAME": "FENGYUN 1C DEB", "OBJECT_ID": "1999-025BYM", "EPOCH": "2025-12-25T15:56:12.109056", "MEAN_MOTION": 14.13210899, "ECCENTRICITY": 0.0145563, "INCLINATION": 98.2426, "RA_OF_ASC_NODE": 68.1644, "ARG_OF_PERICENTER": 99.8764, "MEAN_ANOMALY": 261.8877, "EPHEMERIS_TYPE": 0, "CLASSIFICATION_TYPE": "U", "NORAD_CAT_ID": 31546, "ELEMENT_SET_NO": 999, "REV_AT_EPOCH": 94971, "BSTAR": 0.0014554, "MEAN_MOTION_DOT": 2.977e-05, "MEAN_MOTION_DDOT": 0}, "tle": {"line1": "1 31546U 99025BYM 25359.66402904  .00002977  00000+0  14554-2 0  9994", "line2": "2 31546  98.2426  68.1644 0145563  99.8764 261.8877 14.13210899949715"}}, "geometry": {"type": "Point", "coordinates": [69.29804898924918, -6.005397421882673]}}, {"type": "Feature", "properties": {"norad_id": 31547, "name": "FENGYUN 1C DEB", "group": "fengyun-1c-debris", "lat": -60.73061056491303, "lon": -152.45401629469345, "alt_km": 786.5243295615073, "timestamp": "2025-12-25T22:42:17.294537+00:00", "meta": {"OBJECT_NAME": "FENGYUN 1C DEB", "OBJECT_ID": "1999-025BYN", "EPOCH": "2025-12-23T20:38:21.518592", "MEAN_MOTION": 14.23194387, "ECCENTRICITY": 0.0054564, "INCLINATION": 99.0859, "RA_OF_ASC_NODE": 41.9836, "ARG_OF_PERICENTER": 221.2814, "MEAN_ANOMALY": 138.4231, "EPHEMERIS_TYPE": 0, "CLASSIFICATION_TYPE": "U", "NORAD_CAT_ID": 31547, "ELEMENT_SET_NO": 999, "REV_AT_EPOCH": 64175, "BSTAR": 0.0013187, "MEAN_MOTION_DOT": 2.981e-05, "MEAN_MOTION_DDOT": 0}, "tle": {"line1": "1 31547U 99025BYN 25357.85997128  .00002981  00000+0  13187-2 0  9997", "line2": "2 31547  99.0859  41.9836 0054564 221.2814 138.4231 14.23194387641754"}}, "geometry": {"type": "Point", "coordinates": [-152.45401629469345, -60.73061056491303]}}, {"type": "Feature", "properties": {"norad_id": 31550, "name": "FENGYUN 1C DEB", "group": "fengyun-1c-debris", "lat": 33.52673796598213, "lon": -175.40985990504097, "alt_km": 745.4047143852295, "timestamp": "2025-12-25T22:42:17.294567+00:00", "meta": {"OBJECT_NAME": "FENGYUN 1C DEB", "OBJECT_ID": "1999-025BYR", "EPOCH": "2025-12-24T17:39:58.664160", "MEAN_MOTION": 14.40269304, "ECCENTRICITY": 0.01900874, "INCLINATION": 98.3119, "RA_OF_ASC_NODE": 357.8561, "ARG_OF_PERICENTER": 236.4503, "MEAN_ANOMALY": 121.8407, "EPHEMERIS_TYPE": 0, "CLASSIFICATION_TYPE": "U", "NORAD_CAT_ID": 31550, "ELEMENT_SET_NO": 999, "REV_AT_EPOCH": 65627, "BSTAR": 0.00062276558, "MEAN_MOTION_DOT": 2.391e-05, "MEAN_MOTION_DDOT": 0}, "tle": {"line1": "1 31550U 99025BYR 25358.73609565  .00002391  00000+0  62277-3 0  9994", "line2": "2 31550  98.3119 357.8561 0190087 236.4503 121.8407 14.40269304656272"}}, "geometry": {"type": "Point", "coordinates": [-175.40985990504097, 33.52673796598213]}}]}